DELTA 2 R/B(2)          
1 25136U 98002C   26065.80507675 -.00000130  00000+0  00000+0 0  9996
2 25136  23.1526 133.9546 6955143 236.8031  36.3776  2.19861151226157
ATLAS 2A R/B            
1 25149U 98005B   26061.21600388  .00000493  00000+0  00000+0 0  9990
2 25149  62.1166 190.1989 6798707 280.5154  14.8721  2.06882225 49776
INMARSAT 3-F5           
1 25153U 98006B   26065.46646197 -.00000293  00000+0  00000+0 0  9994
2 25153   9.4698  54.2669 0005318 293.2189 290.6164  1.00275725102861
UFO 8 (USA 138)         
1 25258U 98016A   26065.74211594 -.00000203  00000+0  00000+0 0  9992
2 25258  11.0070  23.3759 0007912 272.6971 286.8022  1.00286888102838
COSMOS 2350             
1 25315U 98025A   26065.88106221 -.00000087  00000+0  00000+0 0  9991
2 25315  13.9258   4.5914 0004666 195.2001 354.2059  1.00284666101989
SL-12 R/B(2)            
1 25318U 98025D   26065.48259635  .00000088  00000+0  00000+0 0  9998
2 25318  13.9495   4.6322 0029182 131.7165  61.9095  1.00044317101748
COSMOS 2351             
1 25327U 98027A   26065.98137475  .00000658  00000+0  00000+0 0  9995
2 25327  63.5961 131.3496 7090944 180.0011 180.0806  2.00332637203916
SL-12 R/B(2)            
1 25334U 98028D   26065.19628160 -.00000185  00000+0  00000+0 0  9999
2 25334  17.4324   1.1439 4861761 334.9533 232.4849  1.82180394185171
TITAN 4B CENTAUR R/B    
1 25337U 98029B   26065.19106411 -.00000371  00000+0  00000+0 0  9990
2 25337   7.6985 342.1244 0043466 175.5785 184.4505  1.00362934 24818
TITAN 4B CENTAUR R/B    
1 25349U 96026B   26065.57012208 -.00000279  00000+0  00000+0 0  9997
2 25349   6.8905 349.9050 0444502  36.5274 326.4052  0.99569686 24612
METEOSAT-7 AKM          
1 25353U 97049E   26061.67243030 -.00000265  00000+0  00000+0 0  9999
2 25353  14.1599   0.0604 0077578 332.0669  27.5277  1.00641937110432
DELTA 2 R/B(2)          
1 25360U 98035C   26065.45105137 -.00000216  00000+0  00000+0 0  9994
2 25360  18.8609 204.3858 6903677 337.4117   8.2285  2.11090542213672
INTELSAT 805 (IS-805)   
1 25371U 98037A   26066.15739094  .00000049  00000+0  00000+0 0  9994
2 25371   7.6321  66.9704 0012331 183.4118 173.9310  0.99477899101342
CZ-3B R/B               
1 25405U 98044B   26066.08503111 -.00000002  00000+0  12872-2 0  9994
2 25405  18.9549  33.1971 7162738  16.3705 357.9058  2.25754298227781
SL-12 R/B(2)            
1 25465U 98050D   26063.35887032 -.00000142  00000+0  00000+0 0  9993
2 25465  14.7208  89.7476 4951709  54.0760  15.2944  1.82826010 84414
SL-12 R/B(2)            
1 25525U 98065D   26065.39424722 -.00000153  00000+0  00000+0 0  9997
2 25525  17.1113 109.8589 5213442 231.6089  68.9648  1.88161780187888
ARIANE 44LP DEB         
1 25538U 88109E   26065.81365677  .00000880  00000+0  10702-1 0  9997
2 25538   6.4732 161.0307 7189212 211.3811 166.5839  2.24128283223829
