[{"OBJECT_NAME":"DELTA 2 R/B(2)","OBJECT_ID":"1998-002C","EPOCH":"2026-03-06T19:19:18.631200","MEAN_MOTION":2.19861151,"ECCENTRICITY":0.6955143,"INCLINATION":23.1526,"RA_OF_ASC_NODE":133.9546,"ARG_OF_PERICENTER":236.8031,"MEAN_ANOMALY":36.3776,"EPHEMERIS_TYPE":0,"CLASSIFICATION_TYPE":"U","NORAD_CAT_ID":25136,"ELEMENT_SET_NO":999,"REV_AT_EPOCH":22615,"BSTAR":0,"MEAN_MOTION_DOT":-1.3e-6,"MEAN_MOTION_DDOT":0},{"OBJECT_NAME":"ATLAS 2A R/B","OBJECT_ID":"1998-005B","EPOCH":"2026-03-02T05:11:02.735232","MEAN_MOTION":2.06882225,"ECCENTRICITY":0.6798707,"INCLINATION":62.1166,"RA_OF_ASC_NODE":190.1989,"ARG_OF_PERICENTER":280.5154,"MEAN_ANOMALY":14.8721,"EPHEMERIS_TYPE":0,"CLASSIFICATION_TYPE":"U","NORAD_CAT_ID":25149,"ELEMENT_SET_NO":999,"REV_AT_EPOCH":4977,"BSTAR":0,"MEAN_MOTION_DOT":4.93e-6,"MEAN_MOTION_DDOT":0},{"OBJECT_NAME":"INMARSAT 3-F5","OBJECT_ID":"1998-006B","EPOCH":"2026-03-06T11:11:42.314208","MEAN_MOTION":1.00275725,"ECCENTRICITY":0.00053184,"INCLINATION":9.4698,"RA_OF_ASC_NODE":54.2669,"ARG_OF_PERICENTER":293.2189,"MEAN_ANOMALY":290.6164,"EPHEMERIS_TYPE":0,"CLASSIFICATION_TYPE":"U","NORAD_CAT_ID":25153,"ELEMENT_SET_NO":999,"REV_AT_EPOCH":10286,"BSTAR":0,"MEAN_MOTION_DOT":-2.93e-6,"MEAN_MOTION_DDOT":0},{"OBJECT_NAME":"UFO 8 (USA 138)","OBJECT_ID":"1998-016A","EPOCH":"2026-03-06T17:48:38.817216","MEAN_MOTION":1.00286888,"ECCENTRICITY":0.0007912,"INCLINATION":11.007,"RA_OF_ASC_NODE":23.3759,"ARG_OF_PERICENTER":272.6971,"MEAN_ANOMALY":286.8022,"EPHEMERIS_TYPE":0,"CLASSIFICATION_TYPE":"U","NORAD_CAT_ID":25258,"ELEMENT_SET_NO":999,"REV_AT_EPOCH":10283,"BSTAR":0,"MEAN_MOTION_DOT":-2.03e-6,"MEAN_MOTION_DDOT":0},{"OBJECT_NAME":"COSMOS 2350","OBJECT_ID":"1998-025A","EPOCH":"2026-03-06T21:08:43.774944","MEAN_MOTION":1.00284666,"ECCENTRICITY":0.0004666,"INCLINATION":13.9258,"RA_OF_ASC_NODE":4.5914,"ARG_OF_PERICENTER":195.2001,"MEAN_ANOMALY":354.2059,"EPHEMERIS_TYPE":0,"CLASSIFICATION_TYPE":"U","NORAD_CAT_ID":25315,"ELEMENT_SET_NO":999,"REV_AT_EPOCH":10198,"BSTAR":0,"MEAN_MOTION_DOT":-8.7e-7,"MEAN_MOTION_DDOT":0},{"OBJECT_NAME":"SL-12 R/B(2)","OBJECT_ID":"1998-025D","EPOCH":"2026-03-06T11:34:56.324640","MEAN_MOTION":1.00044317,"ECCENTRICITY":0.00291821,"INCLINATION":13.9495,"RA_OF_ASC_NODE":4.6322,"ARG_OF_PERICENTER":131.7165,"MEAN_ANOMALY":61.9095,"EPHEMERIS_TYPE":0,"CLASSIFICATION_TYPE":"U","NORAD_CAT_ID":25318,"ELEMENT_SET_NO":999,"REV_AT_EPOCH":10174,"BSTAR":0,"MEAN_MOTION_DOT":8.8e-7,"MEAN_MOTION_DDOT":0},{"OBJECT_NAME":"COSMOS 2351","OBJECT_ID":"1998-027A","EPOCH":"2026-03-06T23:33:10.778400","MEAN_MOTION":2.00332637,"ECCENTRICITY":0.7090944,"INCLINATION":63.5961,"RA_OF_ASC_NODE":131.3496,"ARG_OF_PERICENTER":180.0011,"MEAN_ANOMALY":180.0806,"EPHEMERIS_TYPE":0,"CLASSIFICATION_TYPE":"U","NORAD_CAT_ID":25327,"ELEMENT_SET_NO":999,"REV_AT_EPOCH":20391,"BSTAR":0,"MEAN_MOTION_DOT":6.58e-6,"MEAN_MOTION_DDOT":0},{"OBJECT_NAME":"SL-12 R/B(2)","OBJECT_ID":"1998-028D","EPOCH":"2026-03-06T04:42:38.730240","MEAN_MOTION":1.82180394,"ECCENTRICITY":0.48617613,"INCLINATION":17.4324,"RA_OF_ASC_NODE":1.1439,"ARG_OF_PERICENTER":334.9533,"MEAN_ANOMALY":232.4849,"EPHEMERIS_TYPE":0,"CLASSIFICATION_TYPE":"U","NORAD_CAT_ID":25334,"ELEMENT_SET_NO":999,"REV_AT_EPOCH":18517,"BSTAR":0,"MEAN_MOTION_DOT":-1.85e-6,"MEAN_MOTION_DDOT":0},{"OBJECT_NAME":"TITAN 4B CENTAUR R/B","OBJECT_ID":"1998-029B","EPOCH":"2026-03-06T04:35:07.939104","MEAN_MOTION":1.00362934,"ECCENTRICITY":0.0043466,"INCLINATION":7.6985,"RA_OF_ASC_NODE":342.1244,"ARG_OF_PERICENTER":175.5785,"MEAN_ANOMALY":184.4505,"EPHEMERIS_TYPE":0,"CLASSIFICATION_TYPE":"U","NORAD_CAT_ID":25337,"ELEMENT_SET_NO":999,"REV_AT_EPOCH":2481,"BSTAR":0,"MEAN_MOTION_DOT":-3.71e-6,"MEAN_MOTION_DDOT":0},{"OBJECT_NAME":"TITAN 4B CENTAUR R/B","OBJECT_ID":"1996-026B","EPOCH":"2026-03-06T13:40:58.547712","MEAN_MOTION":0.99569686,"ECCENTRICITY":0.0444502,"INCLINATION":6.8905,"RA_OF_ASC_NODE":349.905,"ARG_OF_PERICENTER":36.5274,"MEAN_ANOMALY":326.4052,"EPHEMERIS_TYPE":0,"CLASSIFICATION_TYPE":"U","NORAD_CAT_ID":25349,"ELEMENT_SET_NO":999,"REV_AT_EPOCH":2461,"BSTAR":0,"MEAN_MOTION_DOT":-2.79e-6,"MEAN_MOTION_DDOT":0},{"OBJECT_NAME":"METEOSAT-7 AKM","OBJECT_ID":"1997-049E","EPOCH":"2026-03-02T16:08:17.977920","MEAN_MOTION":1.00641937,"ECCENTRICITY":0.00775789,"INCLINATION":14.1599,"RA_OF_ASC_NODE":0.0604,"ARG_OF_PERICENTER":332.0669,"MEAN_ANOMALY":27.5277,"EPHEMERIS_TYPE":0,"CLASSIFICATION_TYPE":"U","NORAD_CAT_ID":25353,"ELEMENT_SET_NO":999,"REV_AT_EPOCH":11043,"BSTAR":0,"MEAN_MOTION_DOT":-2.65e-6,"MEAN_MOTION_DDOT":0},{"OBJECT_NAME":"DELTA 2 R/B(2)","OBJECT_ID":"1998-035C","EPOCH":"2026-03-06T10:49:30.838368","MEAN_MOTION":2.11090542,"ECCENTRICITY":0.69036775,"INCLINATION":18.8609,"RA_OF_ASC_NODE":204.3858,"ARG_OF_PERICENTER":337.4117,"MEAN_ANOMALY":8.2285,"EPHEMERIS_TYPE":0,"CLASSIFICATION_TYPE":"U","NORAD_CAT_ID":25360,"ELEMENT_SET_NO":999,"REV_AT_EPOCH":21367,"BSTAR":0,"MEAN_MOTION_DOT":-2.16e-6,"MEAN_MOTION_DDOT":0},{"OBJECT_NAME":"INTELSAT 805 (IS-805)","OBJECT_ID":"1998-037A","EPOCH":"2026-03-07T03:46:38.577216","MEAN_MOTION":0.99477899,"ECCENTRICITY":0.0012331,"INCLINATION":7.6321,"RA_OF_ASC_NODE":66.9704,"ARG_OF_PERICENTER":183.4118,"MEAN_ANOMALY":173.931,"EPHEMERIS_TYPE":0,"CLASSIFICATION_TYPE":"U","NORAD_CAT_ID":25371,"ELEMENT_SET_NO":999,"REV_AT_EPOCH":10134,"BSTAR":0,"MEAN_MOTION_DOT":4.9e-7,"MEAN_MOTION_DDOT":0},{"OBJECT_NAME":"CZ-3B R/B","OBJECT_ID":"1998-044B","EPOCH":"2026-03-07T02:02:26.687904","MEAN_MOTION":2.25754298,"ECCENTRICITY":0.7162738,"INCLINATION":18.9549,"RA_OF_ASC_NODE":33.1971,"ARG_OF_PERICENTER":16.3705,"MEAN_ANOMALY":357.9058,"EPHEMERIS_TYPE":0,"CLASSIFICATION_TYPE":"U","NORAD_CAT_ID":25405,"ELEMENT_SET_NO":999,"REV_AT_EPOCH":22778,"BSTAR":0.0012872,"MEAN_MOTION_DOT":-2.0e-8,"MEAN_MOTION_DDOT":0},{"OBJECT_NAME":"SL-12 R/B(2)","OBJECT_ID":"1998-050D","EPOCH":"2026-03-04T08:36:46.395648","MEAN_MOTION":1.8282601,"ECCENTRICITY":0.49517093,"INCLINATION":14.7208,"RA_OF_ASC_NODE":89.7476,"ARG_OF_PERICENTER":54.076,"MEAN_ANOMALY":15.2944,"EPHEMERIS_TYPE":0,"CLASSIFICATION_TYPE":"U","NORAD_CAT_ID":25465,"ELEMENT_SET_NO":999,"REV_AT_EPOCH":8441,"BSTAR":0,"MEAN_MOTION_DOT":-1.42e-6,"MEAN_MOTION_DDOT":0},{"OBJECT_NAME":"SL-12 R/B(2)","OBJECT_ID":"1998-065D","EPOCH":"2026-03-06T09:27:42.959808","MEAN_MOTION":1.8816178,"ECCENTRICITY":0.52134423,"INCLINATION":17.1113,"RA_OF_ASC_NODE":109.8589,"ARG_OF_PERICENTER":231.6089,"MEAN_ANOMALY":68.9648,"EPHEMERIS_TYPE":0,"CLASSIFICATION_TYPE":"U","NORAD_CAT_ID":25525,"ELEMENT_SET_NO":999,"REV_AT_EPOCH":18788,"BSTAR":0,"MEAN_MOTION_DOT":-1.53e-6,"MEAN_MOTION_DDOT":0},{"OBJECT_NAME":"ARIANE 44LP DEB","OBJECT_ID":"1988-109E","EPOCH":"2026-03-06T19:31:39.944928","MEAN_MOTION":2.24128283,"ECCENTRICITY":0.7189212,"INCLINATION":6.4732,"RA_OF_ASC_NODE":161.0307,"ARG_OF_PERICENTER":211.3811,"MEAN_ANOMALY":166.5839,"EPHEMERIS_TYPE":0,"CLASSIFICATION_TYPE":"U","NORAD_CAT_ID":25538,"ELEMENT_SET_NO":999,"REV_AT_EPOCH":22382,"BSTAR":0.010702,"MEAN_MOTION_DOT":8.8e-6,"MEAN_MOTION_DDOT":0}]
